     2.10           NAVIGATION DATA                         RINEX VERSION / TYPE
SPIDER V4,0,0,3554                      2015 03 18 01:16    PGM / RUN BY / DATE 
   1.5832D-08 -7.4506D-09 -5.9605D-08  5.9605D-08           ION ALPHA           
   1.2288D+05 -6.5536D+04 -1.3107D+05 -6.5536D+04           ION BETA            
    4.656612873077D-09 1.598721155460D-14   589824     1832 DELTA-UTC: A0,A1,T,W
    16                                                      LEAP SECONDS        
                                                            END OF HEADER       
17 15 02 18 20 00  0.0-1.566396094859D-04-2.160049916711D-12 0.000000000000D+00
    2.500000000000D+01-6.881250000000D+01 4.613763593397D-09-1.910444273078D+00
   -3.503635525703D-06 1.009556930512D-02 1.259148120880D-06 5.153715290070D+03
    3.312000000000D+05 2.495944499969D-07-1.182873861341D+00-9.313225746155D-08
    9.711487545066D-01 3.606250000000D+02-2.032942354815D+00-8.349275937292D-09
   -2.525105124995D-10 1.000000000000D+00 1.832000000000D+03 0.000000000000D+00
    2.000000000000D+00 0.000000000000D+00-1.071020960808D-08 2.500000000000D+01
    3.312000000000D+05 0.000000000000D+00
18 15 02 19 00 00  0.0 3.805742599070D-04 2.728484105319D-12 0.000000000000D+00
    3.200000000000D+01 6.500000000000D+01 5.344151343678D-09 1.682339258720D+00
    3.317371010780D-06 1.573375600856D-02 9.533017873764D-06 5.153763626099D+03
    3.456000000000D+05-3.594905138016D-07 8.496695776570D-01-3.445893526077D-07
    9.252955827322D-01 1.765625000000D+02-1.989840661308D+00-8.559641884176D-09
    7.700320936443D-10 1.000000000000D+00 1.832000000000D+03 0.000000000000D+00
    2.000000000000D+00 0.000000000000D+00-1.117587089539D-08 3.200000000000D+01
    3.456000000000D+05 0.000000000000D+00
19 15 02 18 08 00  0.0-5.009835585952D-04-1.364242052659D-12 0.000000000000D+00
    2.500000000000D+01-1.149375000000D+02 4.859130875445D-09-2.732056433711D+00
   -5.997717380524D-06 1.094761199784D-02 2.995133399963D-06 5.153693881989D+03
    2.880000000000D+05-3.352761268616D-08-1.132539335541D+00-1.788139343262D-07
    9.682707250480D-01 3.268750000000D+02 5.196034185623D-01-8.428565401175D-09
   -3.750156296611D-10 1.000000000000D+00 1.832000000000D+03 0.000000000000D+00
    2.000000000000D+00 0.000000000000D+00-1.490116119385D-08 2.500000000000D+01
    2.880000000000D+05 0.000000000000D+00
20 15 02 18 16 00  0.0 2.910955809057D-04 4.092726157978D-12 0.000000000000D+00
    7.000000000000D+01 7.828125000000D+01 5.499514621476D-09-2.819278298440D+00
    3.926455974579D-06 5.805285298266D-03 8.998438715935D-06 5.155767745972D+03
    3.168000000000D+05 7.078051567078D-08 7.972389623514D-01-9.313225746155D-09
    9.264937916367D-01 1.864062500000D+02 1.236118764645D+00-8.442494703331D-09
    7.214586150717D-10 1.000000000000D+00 1.832000000000D+03 0.000000000000D+00
    2.000000000000D+00 0.000000000000D+00-8.381903171539D-09 7.000000000000D+01
    3.168000000000D+05 0.000000000000D+00
21 15 02 19 00 00  0.0-4.181293770671D-04-4.092726157978D-12 0.000000000000D+00
    3.800000000000D+01-1.224687500000D+02 4.595905878091D-09 2.702909022759D+00
   -6.334856152534D-06 2.224378648680D-02 1.230835914612D-05 5.153622415543D+03
    3.456000000000D+05 1.657754182816D-07-1.936178017357D-01-2.030283212662D-07
    9.339699423170D-01 1.243125000000D+02-1.946498493327D+00-7.742465335525D-09
   -2.225092748942D-10 1.000000000000D+00 1.832000000000D+03 0.000000000000D+00
    2.800000000000D+00 0.000000000000D+00-1.164153218269D-08 3.800000000000D+01
    3.456000000000D+05 0.000000000000D+00
22 15 02 18 06 00  0.0 3.195856697857D-04 4.320099833421D-12 0.000000000000D+00
    8.100000000000D+01 6.600000000000D+01 5.511658240920D-09-1.959474110019D+00
    3.321096301079D-06 7.496616570279D-03 7.864087820053D-06 5.153694900513D+03
    2.808000000000D+05 1.788139343262D-07 8.515907226404D-01-1.192092895508D-07
    9.230555771984D-01 2.072500000000D+02-2.068444402486D+00-8.434636988852D-09
    6.432410715185D-10 1.000000000000D+00 1.832000000000D+03 0.000000000000D+00
    2.800000000000D+00 0.000000000000D+00-1.769512891769D-08 8.100000000000D+01
    2.808000000000D+05 0.000000000000D+00
23 15 02 18 14 00  0.0-8.963514119387D-05-2.614797267597D-12 0.000000000000D+00
    1.400000000000D+01-4.375000000000D+01 5.379509726566D-09-2.279218028865D-02
   -2.369284629822D-06 9.770182892680D-03 4.332512617111D-06 5.153653175354D+03
    3.096000000000D+05-3.725290298462D-09 1.920796912764D+00 9.126961231232D-08
    9.488262850290D-01 2.859062500000D+02-2.712091801967D+00-8.758936687059D-09
   -5.403796299319D-10 1.000000000000D+00 1.832000000000D+03 0.000000000000D+00
    2.000000000000D+00 0.000000000000D+00-2.002343535423D-08 1.400000000000D+01
    3.096000000000D+05 0.000000000000D+00
24 15 02 18 22 00  0.0-4.369718953967D-05-6.821210263297D-13 0.000000000000D+00
    7.100000000000D+01-1.300000000000D+01 4.461614633300D-09-2.782757637002D+00
   -7.096678018570D-07 3.076842171140D-03 1.371279358864D-05 5.153691146851D+03
    3.384000000000D+05-9.313225746155D-08 2.947433826712D+00-3.725290298462D-08
    9.547259352074D-01 1.130625000000D+02 2.873995242581D-01-7.902829501916D-09
   -4.428755973063D-10 1.000000000000D+00 1.832000000000D+03 0.000000000000D+00
    2.000000000000D+00 0.000000000000D+00 2.328306436539D-09 7.100000000000D+01
    3.384000000000D+05 0.000000000000D+00
25 15 02 19 00 00  0.0-4.798173904419D-06-2.842170943040D-12 0.000000000000D+00
    3.500000000000D+01 1.350937500000D+02 4.189460334203D-09 2.549679422394D+00
    6.962567567825D-06 4.215678665787D-03 8.273869752884D-06 5.153723054886D+03
    3.456000000000D+05-9.313225746155D-08-2.275636622542D+00-9.685754776001D-08
    9.778499067793D-01 2.271250000000D+02 6.613601819062D-01-7.958545822362D-09
    4.721625312953D-10 1.000000000000D+00 1.832000000000D+03 0.000000000000D+00
    2.000000000000D+00 0.000000000000D+00 5.122274160385D-09 3.500000000000D+01
    3.456000000000D+05 0.000000000000D+00
26 15 01 05 22 00  0.0-1.823231577873D-04-1.330136001343D-11 0.000000000000D+00
    3.800000000000D+01 1.250000000000D-01 4.080884075108D-09 2.604180499805D+00
   -1.583248376846D-07 2.147367561702D-02 1.074746251106D-05 5.153688327789D+03
    1.656000000000D+05 1.788139343262D-07 2.767593611897D+00-2.570450305939D-07
    9.729878531924D-01 1.729062500000D+02 1.300658203052D+00-7.303875726450D-09
   -6.582416833822D-10 1.000000000000D+00 1.826000000000D+03 0.000000000000D+00
    2.000000000000D+00 1.000000000000D+00-6.519258022308D-09 3.800000000000D+01
    1.656000000000D+05 0.000000000000D+00
27 15 02 19 00 00  0.0 5.241436883807D-05 2.614797267597D-12 0.000000000000D+00
    8.600000000000D+01-6.318750000000D+01 4.896989480585D-09 2.792563268212D-01
   -3.371387720108D-06 1.995739992708D-03 1.247972249985D-06 5.153683937073D+03
    3.456000000000D+05-5.587935447693D-09-1.230203961561D+00-1.490116119385D-08
    9.659783192515D-01 3.536562500000D+02 1.348487646952D-01-8.647860205713D-09
   -3.835874118341D-10 1.000000000000D+00 1.832000000000D+03 0.000000000000D+00
    2.000000000000D+00 0.000000000000D+00 1.862645149231D-09 8.600000000000D+01
    3.456000000000D+05 0.000000000000D+00
28 15 02 18 17 59 44.0 4.204162396491D-04 2.614797267597D-12 0.000000000000D+00
    2.400000000000D+01 1.292812500000D+02 3.800158410172D-09-2.165004405398D+00
    6.740912795067D-06 1.967540662736D-02 6.048008799553D-06 5.153693923950D+03
    3.239840000000D+05 2.812594175339D-07-2.205858326739D+00 8.381903171539D-08
    9.883702919670D-01 2.762187500000D+02-1.669930812441D+00-7.683891745103D-09
    4.625192728813D-10 1.000000000000D+00 1.832000000000D+03 0.000000000000D+00
    2.000000000000D+00 0.000000000000D+00-1.117587089539D-08 2.400000000000D+01
    3.239840000000D+05 0.000000000000D+00
29 15 02 19 00 00  0.0 5.929749459028D-04 2.387423592154D-12 0.000000000000D+00
    2.700000000000D+01-6.103125000000D+01 4.666265596143D-09 3.048212108555D+00
   -3.257766366005D-06 1.310311839916D-03 1.447275280952D-06 5.153550443649D+03
    3.456000000000D+05 3.352761268616D-08-1.173716933359D+00 3.725290298462D-09
    9.719632297585D-01 3.570625000000D+02-8.541756549989D-01-8.472138546267D-09
   -3.496574141337D-10 1.000000000000D+00 1.832000000000D+03 0.000000000000D+00
    2.000000000000D+00 0.000000000000D+00-9.778887033463D-09 2.700000000000D+01
    3.456000000000D+05 0.000000000000D+00
30 15 02 18 16 00  0.0-8.415803313255D-05 1.477928890381D-12 0.000000000000D+00
    6.600000000000D+01 2.193750000000D+01 4.168387857106D-09-3.895634586989D-01
    9.834766387939D-07 1.011147745885D-03 1.394376158714D-05 5.153778179169D+03
    3.168000000000D+05 6.519258022308D-08 3.037439305631D+00-3.352761268616D-08
    9.572447056329D-01 1.109062500000D+02 2.938960978241D+00-7.799610735049D-09
   -4.435899148003D-10 1.000000000000D+00 1.832000000000D+03 0.000000000000D+00
    2.000000000000D+00 0.000000000000D+00 3.259629011154D-09 6.600000000000D+01
    3.168000000000D+05 0.000000000000D+00
31 15 02 19 00 00  0.0 3.229901194572D-04-9.094947017729D-13 0.000000000000D+00
    8.400000000000D+01-2.718750000000D+00 3.933021019975D-09-2.684943625102D+00
   -5.960464477539D-08 8.295137435198D-03 1.373887062073D-05 5.153741079330D+03
    3.456000000000D+05-8.940696716309D-08 2.993852230534D+00 1.490116119385D-07
    9.764176031867D-01 1.239687500000D+02-5.470514175616D-01-7.529242118665D-09
   -4.053740398913D-10 1.000000000000D+00 1.832000000000D+03 0.000000000000D+00
    2.000000000000D+00 0.000000000000D+00-1.350417733192D-08 8.400000000000D+01
    3.456000000000D+05 0.000000000000D+00
